STARLINK-31552          
1 59356U 24060J   26068.52471392  .00000083  00000+0  12544-4 0  9995
2 59356  43.0046 261.1466 0002018 282.3333  77.7292 15.27574193110031
JINJUSAT-1B             
1 63210U 25052A   26068.66363707  .00019955  00000+0  68430-3 0  9998
2 63210  97.4113 325.4613 0005550  82.1930 277.9941 15.30194857 54866
